codigo,nombre,domicilio,c_postal,localidad,provincia,pais,rubro,email_logi,Address,Latitude,Longitude
<<<<<<<<<<<<<<<,IMPERPLAST S.R.L.,RUTA 102 Y RUTA 101,,COLONIA NICOLICH,URUGUAY,URUGUAY,EXPO,,"RUTA 102 Y RUTA 101 () COLONIA NICOLICH, URUGUAY, URUGUAY",,
1827,ASFALKOTE PENNSYLVANIA S.A.,Dr.  JOSE  M.  VIDAL   289,,MONTEVIDEO,URUGUAY,URUGUAY,EXPO,,"Dr.  JOSE  M.  VIDAL   289 () MONTEVIDEO, URUGUAY, URUGUAY",,
5983,C. GONZALEZ Y CIA SRL,SAN JUAN 3451,2000,ROSARIO,SANTA FE,ARGENTINA,DISTRIBUIDOR,,"SAN JUAN 3451 (2000) ROSARIO, SANTA FE, ARGENTINA",,
5552,DISER SRL,JOSE F MORENO 2497,5500,MENDOZA,MENDOZA,ARGENTINA,DISTRIBUIDOR,,"JOSE F MORENO 2497 (5500) MENDOZA, MENDOZA, ARGENTINA",,
1612,CABEZA RUBEN JOSE,LAPRIDA 3976,2000,ROSARIO,SANTA FE,ARGENTINA,DISTRIBUIDOR,,"LAPRIDA 3976 (2000) ROSARIO, SANTA FE, ARGENTINA",,
5700,DOM DISTRIBUCIONES S.A.,PARQUE INDUSTRIAL AVANT ALVEAR,2126,ALVEAR,SANTA FE,ARGENTINA,DISTRIBUIDOR,,"PARQUE INDUSTRIAL AVANT ALVEAR (2126) ALVEAR, SANTA FE, ARGENTINA",,
4786,SIDERCHAP S.A.,PEDRO DEL CASTILLO 3721,5521,VILLA NUEVA DE GUAYMALLEN,MENDOZA,ARGENTINA,FERRETERIA,,"PEDRO DEL CASTILLO 3721 (5521) VILLA NUEVA DE GUAYMALLEN, MENDOZA, ARGENTINA",,
335,SPEEDY G RACING TEAM S.A.,CALLE 310 N§ 1644,1886,RANELAGH,BUENOS AIRES,ARGENTINA,,,"CALLE 310 N§ 1644 (1886) RANELAGH, BUENOS AIRES, ARGENTINA",,
5070,PINTURERIAS REX S.A.,SAENZ PEÑA 2225,1650,SAN MARTIN,BUENOS AIRES,ARGENTINA,PINTURERIA,,"SAENZ PEÑA 2225 (1650) SAN MARTIN, BUENOS AIRES, ARGENTINA",,
4639,GINI S.A.,BOEDO 1530,1832,LOMAS DE ZAMORA,BUENOS AIRES,ARGENTINA,ZINGUERIA,,"BOEDO 1530 (1832) LOMAS DE ZAMORA, BUENOS AIRES, ARGENTINA",,
6813,SUPERMAT CENTRAL SAS,MENDOZA 1639,4000,TUCUMAN,TUCUMAN,ARGENTINA,GRUPO DE COMPRAS,,"MENDOZA 1639 (4000) TUCUMAN, TUCUMAN, ARGENTINA",,
5251,ADRIAN FRANCO DEL VALLE VILLAL,AUTOPISTA,4101,VILLA MARIANO MORENO,TUCUMAN,ARGENTINA,DISTRIBUIDOR,,"AUTOPISTA (4101) VILLA MARIANO MORENO, TUCUMAN, ARGENTINA",,
4752,ALUMETAL S.A.,ENTRE RIOS 253 NORTE,5400,SAN JUAN,SAN JUAN,ARGENTINA,FERRETERIA,,"ENTRE RIOS 253 NORTE (5400) SAN JUAN, SAN JUAN, ARGENTINA",,
4395,COBAS OSCAR ALBERTO,AUT. BS AS LA PLATA KM 30,1884,BERAZATEGUI,BUENOS AIRES,ARGENTINA,DISTRIBUIDOR,,"AUT. BS AS LA PLATA KM 30 (1884) BERAZATEGUI, BUENOS AIRES, ARGENTINA",,
81,RAIPOR AISLACIONES SA,AV. MITRE 5489,1650,SAN MARTIN,BUENOS AIRES,ARGENTINA,DISTRIBUIDOR,,"AV. MITRE 5489 (1650) SAN MARTIN, BUENOS AIRES, ARGENTINA",,
3314,COMERCIAL SAN MIGUEL,AV. AGUIRRE 1781,4200,SANTIAGO DEL ESTERO,SANTIAGO DEL ESTERO,ARGENTINA,,,"AV. AGUIRRE 1781 (4200) SANTIAGO DEL ESTERO, SANTIAGO DEL ESTERO, ARGENTINA",,
5068,EL MUNDO LED SRL,SIRIA 188,4400,SALTA,SALTA,ARGENTINA,DISTRIBUIDOR,,"SIRIA 188 (4400) SALTA, SALTA, ARGENTINA",,
5874,HEIMPERMEABILIZA SAS,AV ARGENTINA 53,5194,VILLA GENERAL BELGRANO,CORDOBA,ARGENTINA,COLOCADOR,,"AV ARGENTINA 53 (5194) VILLA GENERAL BELGRANO, CORDOBA, ARGENTINA",,
1032,FUTURO S.A (BENAVIDEZ),AV. ESPA¥A SUR 1899.,5425,RAWSON,SAN JUAN,ARGENTINA,CORRALON,,"AV. ESPA¥A SUR 1899. (5425) RAWSON, SAN JUAN, ARGENTINA",,
3152,ROUTER S.A,B§ P. INDUSTRIAL MZA W LOTE 11,4300,LA BANDA,SANTIAGO DEL ESTERO,ARGENTINA,DISTRIBUIDOR,,"B§ P. INDUSTRIAL MZA W LOTE 11 (4300) LA BANDA, SANTIAGO DEL ESTERO, ARGENTINA",,
4924,P.A.P RUTA 38 SRL,RUTA Nº 38 ALTURA KM 574.8 BSU,4700,SAN FERNANDO DEL VALLE DE CATAMARCA,CATAMARCA,ARGENTINA,DISTRIBUIDOR,,"RUTA Nº 38 ALTURA KM 574.8 BSU (4700) SAN FERNANDO DEL VALLE DE CATAMARCA, CATAMARCA, ARGENTINA",,
6721,MARTINEZ GOMEZ IVAN EZEQUIEL,AV COLON 325,4200,SANTIAGO DEL ESTERO,SANTIAGO DEL ESTERO,ARGENTINA,,,"AV COLON 325 (4200) SANTIAGO DEL ESTERO, SANTIAGO DEL ESTERO, ARGENTINA",,
5741,DISTRIBUIDORA BABUSI,54  1560,1900,LA PLATA,BUENOS AIRES,ARGENTINA,DISTRIBUIDOR,,"54  1560 (1900) LA PLATA, BUENOS AIRES, ARGENTINA",,
1230,CORDOBA GUSTAVO VICTOR,MELO 1776,1744,MORENO,BUENOS AIRES,ARGENTINA,DISTRIBUIDOR,,"MELO 1776 (1744) MORENO, BUENOS AIRES, ARGENTINA",,
1165,BAZAN CARMEN LOURDES,MARCOS SASTRE 1169,5547,VILLA HIPODROMO,MENDOZA,ARGENTINA,DISTRIBUIDOR,,"MARCOS SASTRE 1169 (5547) VILLA HIPODROMO, MENDOZA, ARGENTINA",,
4792,FRANCHI RUBEN SH,CAMINO GRAL BELGRANO 3475,1881,SAN FRANCISCO SOLANO,BUENOS AIRES,ARGENTINA,FERRETERIA,,"CAMINO GRAL BELGRANO 3475 (1881) SAN FRANCISCO SOLANO, BUENOS AIRES, ARGENTINA",,
1823,CALVO CENDRA S.A.,Sgto Clemente Rojas 320,,ASUNCION,PARAGUAY,PARAGUAY,EXPO,,"Sgto Clemente Rojas 320 () ASUNCION, PARAGUAY, PARAGUAY",,
4705,A B CONSTRUCCIONES S R L,AV ALTE BROWN 198,4600,S. S. DE JUJUY,JUJUY,ARGENTINA,CONSTRUCTORA,,"AV ALTE BROWN 198 (4600) S. S. DE JUJUY, JUJUY, ARGENTINA",,
4772,COPOLETTI ALDO,AV LAS HERAS 282,1876,BERNAL,BUENOS AIRES,ARGENTINA,COLOCADOR,,"AV LAS HERAS 282 (1876) BERNAL, BUENOS AIRES, ARGENTINA",,
5271,CONSTRUYA AL COSTO,RIOJA 1275,2000,ROSARIO,SANTA FE,ARGENTINA,CONSTRUCTORA,,"RIOJA 1275 (2000) ROSARIO, SANTA FE, ARGENTINA",,
5201,KUM S.A.,DIAGONAL ICA 2034,5012,CORDOBA UNIDAD POSTAL N° 19,CORDOBA,ARGENTINA,PINTURERIA,,"DIAGONAL ICA 2034 (5012) CORDOBA UNIDAD POSTAL N° 19, CORDOBA, ARGENTINA",,
4158,SAMACO S.A. COM IND CONST Y AG,R.E. DE SAN MARTIN 2197,5500,MENDOZA,MENDOZA,ARGENTINA,CORRALON,,"R.E. DE SAN MARTIN 2197 (5500) MENDOZA, MENDOZA, ARGENTINA",,
5178,ONTIVERO ALEXIS,VIEYTES 1260,5000,CORDOBA -  DISTRIBUCION CASA CENTRA,CORDOBA,ARGENTINA,COLOCADOR,,"VIEYTES 1260 (5000) CORDOBA -  DISTRIBUCION CASA CENTRA, CORDOBA, ARGENTINA",,
725,CACERES HECTOR GREGORIO,MITRE 1230 E/ JUNIN Y AZCUENAG,2600,VENADO TUERTO,SANTA FE,ARGENTINA,DISTRIBUIDOR,,"MITRE 1230 E/ JUNIN Y AZCUENAG (2600) VENADO TUERTO, SANTA FE, ARGENTINA",,
5786,PAGIO S.A.S.,P. MENDOCINAS 1221,5500,MENDOZA,MENDOZA,ARGENTINA,DISTRIBUIDOR,,"P. MENDOCINAS 1221 (5500) MENDOZA, MENDOZA, ARGENTINA",,
4735,LUCERO CARINA MERCEDES,YAPEYU 2610,5541,EL PLUMERILLO,MENDOZA,ARGENTINA,DISTRIBUIDOR,,"YAPEYU 2610 (5541) EL PLUMERILLO, MENDOZA, ARGENTINA",,
3998,BARRIONUEVO MARCO ADRIAN,ALVEAR 1382,5800,RIO CUARTO,CORDOBA,ARGENTINA,COLOCADOR,,"ALVEAR 1382 (5800) RIO CUARTO, CORDOBA, ARGENTINA",,
5767,COMPAÑIA AMERICANA SRL,CORRIENTES 2499,2000,ROSARIO,SANTA FE,ARGENTINA,DISTRIBUIDOR,,"CORRIENTES 2499 (2000) ROSARIO, SANTA FE, ARGENTINA",,
4209,CONS FINAL - CHILO,,1849,CLAYPOLE,BUENOS AIRES,ARGENTINA,DISTRIBUIDOR,," (1849) CLAYPOLE, BUENOS AIRES, ARGENTINA",,
5557,LARREA 3600 S.A.,EL CANO 7641,7600,MAR DEL PLATA,BUENOS AIRES,ARGENTINA,DISTRIBUIDOR,,"EL CANO 7641 (7600) MAR DEL PLATA, BUENOS AIRES, ARGENTINA",,
958,COLORAMA S.A,BELGRANO 890,5870,VILLA DOLORES,CORDOBA,ARGENTINA,PINTURERIA,,"BELGRANO 890 (5870) VILLA DOLORES, CORDOBA, ARGENTINA",,
1200,EMPRENDIMIENTOS DEL FUTURO SRL,SCALABRINI ORTIZ NORTE 730,5400,SAN JUAN,SAN JUAN,ARGENTINA,CORRALON,,"SCALABRINI ORTIZ NORTE 730 (5400) SAN JUAN, SAN JUAN, ARGENTINA",,
4155,LUTRE JUAN ERNESTO,JULIO A ROCCA 1011 - B° OBSERV,5000,CORDOBA -  DISTRIBUCION CASA CENTRA,CORDOBA,ARGENTINA,COLOCADOR,,"JULIO A ROCCA 1011 - B° OBSERV (5000) CORDOBA -  DISTRIBUCION CASA CENTRA, CORDOBA, ARGENTINA",,
1616,ABDELNUR ESTEBAN CESAR,BROWN 2614,2132,FUNES,SANTA FE,ARGENTINA,DISTRIBUIDOR,,"BROWN 2614 (2132) FUNES, SANTA FE, ARGENTINA",,
4696,DISMACON S. R. L.,DIAMANTE CASI AV. O. DE OCAMPO,5300,LA RIOJA,LA RIOJA,ARGENTINA,DISTRIBUIDOR,,"DIAMANTE CASI AV. O. DE OCAMPO (5300) LA RIOJA, LA RIOJA, ARGENTINA",,
5836,FERRETERIA CENTRAL JT SRL,SOBREMONTE 3225,5800,RIO CUARTO,CORDOBA,ARGENTINA,DISTRIBUIDOR,,"SOBREMONTE 3225 (5800) RIO CUARTO, CORDOBA, ARGENTINA",,
4761,PORTA JORGE ESMIR,ROBERTO PAYRO 4856,5000,CORDOBA -  DISTRIBUCION CASA CENTRA,CORDOBA,ARGENTINA,COLOCADOR,,"ROBERTO PAYRO 4856 (5000) CORDOBA -  DISTRIBUCION CASA CENTRA, CORDOBA, ARGENTINA",,
4454,FLORES ENRIQUE ALBINO,B§ PARAISO CASA 16,5511,GENERAL GUTIERREZ,MENDOZA,ARGENTINA,DISTRIBUIDOR,,"B§ PARAISO CASA 16 (5511) GENERAL GUTIERREZ, MENDOZA, ARGENTINA",,
4967,FGH S.A.,AV. SARMIENTO 450,5600,SAN RAFAEL,MENDOZA,ARGENTINA,CORRALON,,"AV. SARMIENTO 450 (5600) SAN RAFAEL, MENDOZA, ARGENTINA",,
4920,LA CASA DE LAS CHAPAS S.A.,E. PERALTA RAMOS 155,7600,MAR DEL PLATA,BUENOS AIRES,ARGENTINA,CONSTRUCCION EN SECO,,"E. PERALTA RAMOS 155 (7600) MAR DEL PLATA, BUENOS AIRES, ARGENTINA",,
5400,SISTEMA BLOCKE ARGENTINA SA,BELTRAN 608,5500,MENDOZA,MENDOZA,ARGENTINA,DISTRIBUIDOR,,"BELTRAN 608 (5500) MENDOZA, MENDOZA, ARGENTINA",,
99,CASA PATAMIA S.A.,AV. EVA PERON 523,5280,CRUZ DEL EJE,CORDOBA,ARGENTINA,,,"AV. EVA PERON 523 (5280) CRUZ DEL EJE, CORDOBA, ARGENTINA",,
166,CORRALON MAYORISTA SRL,J.J. LASTRA 4000,8300,NEUQUEN,NEUQUEN,ARGENTINA,CORRALON,,"J.J. LASTRA 4000 (8300) NEUQUEN, NEUQUEN, ARGENTINA",,
5442,LUPATINI Y CIA S.A.,AQUINO 432,1714,ITUZAINGO,BUENOS AIRES,ARGENTINA,PINTURERIA,,"AQUINO 432 (1714) ITUZAINGO, BUENOS AIRES, ARGENTINA",,
6741,CARROLON SRL,AV SANTOS ORTIZ Y RUTA 147,5700,SAN LUIS,SAN LUIS,ARGENTINA,FERRETERIA,,"AV SANTOS ORTIZ Y RUTA 147 (5700) SAN LUIS, SAN LUIS, ARGENTINA",,
214,V S MATERIALES- MOREIRA JUAN C,H.YRIGOYEN Y MARTIN FIERRO,9100,TRELEW,CHUBUT,ARGENTINA,CORRALON,,"H.YRIGOYEN Y MARTIN FIERRO (9100) TRELEW, CHUBUT, ARGENTINA",,
1256,DO BRITO RUBEN OSCAR,BV AVELLANEDA 1001 Y SAN LUIS,2000,ROSARIO,SANTA FE,ARGENTINA,COLOCADOR,,"BV AVELLANEDA 1001 Y SAN LUIS (2000) ROSARIO, SANTA FE, ARGENTINA",,
5613,GOMEZ CONSTRUSHOP SA,AV CENTENARIO 290,5700,SAN LUIS,SAN LUIS,ARGENTINA,CORRALON,,"AV CENTENARIO 290 (5700) SAN LUIS, SAN LUIS, ARGENTINA",,
1440,SIMONIT VANESA CAROLINA,AV. URQUIZA 1185,3500,RESISTENCIA,CHACO,ARGENTINA,DISTRIBUIDOR,,"AV. URQUIZA 1185 (3500) RESISTENCIA, CHACO, ARGENTINA",,
5936,SPARTA MIGUEL ANGEL,CASTRO BARROS 746,1686,HURLINGHAM,BUENOS AIRES,ARGENTINA,CONSTRUCTORA,,"CASTRO BARROS 746 (1686) HURLINGHAM, BUENOS AIRES, ARGENTINA",,
5635,ARESO SANTIAGO,BV. COLON 434,2700,PERGAMINO,BUENOS AIRES,ARGENTINA,COLOCADOR,,"BV. COLON 434 (2700) PERGAMINO, BUENOS AIRES, ARGENTINA",,
5575,RICCIUTI LORENA EDITH,LORENZINI 2808,1684,EL PALOMAR,BUENOS AIRES,ARGENTINA,DISTRIBUIDOR,,"LORENZINI 2808 (1684) EL PALOMAR, BUENOS AIRES, ARGENTINA",,
1027,TODO CORRALON S.R.L.,CERROTRONADOR 1048 Piso:PB,8332,GENERAL ROCA,RIO NEGRO,ARGENTINA,CORRALON,,"CERROTRONADOR 1048 Piso:PB (8332) GENERAL ROCA, RIO NEGRO, ARGENTINA",,
5629,ROSSO HNOS SA,AV LEANDRO ALEM 595,4000,SAN MIGUEL DE TUCUMAN,TUCUMAN,ARGENTINA,CORRALON,,"AV LEANDRO ALEM 595 (4000) SAN MIGUEL DE TUCUMAN, TUCUMAN, ARGENTINA",,
56,PERREN Y CIA S.A.,9 DE JULIO 975,9100,TRELEW,CHUBUT,ARGENTINA,CORRALON,,"9 DE JULIO 975 (9100) TRELEW, CHUBUT, ARGENTINA",,
5650,ALDO MOVILE S CAPI I SECC IV,CUENCA 525,1684,EL PALOMAR,BUENOS AIRES,ARGENTINA,DISTRIBUIDOR,,"CUENCA 525 (1684) EL PALOMAR, BUENOS AIRES, ARGENTINA",,
4669,MEDINA M.A Y MEDINA C.A,CORRIENTES 4505,2000,ROSARIO,SANTA FE,ARGENTINA,DISTRIBUIDOR,,"CORRIENTES 4505 (2000) ROSARIO, SANTA FE, ARGENTINA",,
4401,RAMON SANCHEZ E HIJOS SRL,AV. MITRE 868,5600,SAN RAFAEL,MENDOZA,ARGENTINA,CORRALON,,"AV. MITRE 868 (5600) SAN RAFAEL, MENDOZA, ARGENTINA",,
1448,CORRALON FERNANDES S.A.C.Y.C,CASTAÑON 3682,9100,TRELEW,CHUBUT,ARGENTINA,CORRALON,,"CASTAÑON 3682 (9100) TRELEW, CHUBUT, ARGENTINA",,
5181,NORMA BEATRIZ BORETTI,AV CARCANO 392,5152,VILLA CARLOS PAZ,CORDOBA,ARGENTINA,COLOCADOR,,"AV CARCANO 392 (5152) VILLA CARLOS PAZ, CORDOBA, ARGENTINA",,
5261,LUIS SERAN,PASAJE MAR CHIQUITA 4308,5006,BARRIO ALTAMIRA,CORDOBA,ARGENTINA,COLOCADOR,,"PASAJE MAR CHIQUITA 4308 (5006) BARRIO ALTAMIRA, CORDOBA, ARGENTINA",,
1329,CARMAGI S.R.L.,CORRIENTES 454,6500,9 DE JULIO,BUENOS AIRES,ARGENTINA,CORRALON,,"CORRIENTES 454 (6500) 9 DE JULIO, BUENOS AIRES, ARGENTINA",,
3317,LAR MATERIALES S.A.,DORREGO 199,5300,LA RIOJA,LA RIOJA,ARGENTINA,CORRALON,,"DORREGO 199 (5300) LA RIOJA, LA RIOJA, ARGENTINA",,
4080,CHAIB WALTER DARIO,17 DE JULIO 4033,5006,BARRIO EMPALME FCGBM,CORDOBA,ARGENTINA,,,"17 DE JULIO 4033 (5006) BARRIO EMPALME FCGBM, CORDOBA, ARGENTINA",,
4616,ARRIETA ANGEL DARIO,JOSE HERNANDEZ 1970,5800,RIO CUARTO,CORDOBA,ARGENTINA,COLOCADOR,,"JOSE HERNANDEZ 1970 (5800) RIO CUARTO, CORDOBA, ARGENTINA",,
4912,AGRUP. COMPRAS FERRETERA ROSAR,VELEZ SARSFIELD 440,2000,ROSARIO,SANTA FE,ARGENTINA,GRUPO DE COMPRAS,,"VELEZ SARSFIELD 440 (2000) ROSARIO, SANTA FE, ARGENTINA",,
4629,ESPA S.A.,BV. LOS ALEMANES 3312,5147,LOS BOULEVARES,CORDOBA,ARGENTINA,DISTRIBUIDOR,,"BV. LOS ALEMANES 3312 (5147) LOS BOULEVARES, CORDOBA, ARGENTINA",,
5751,DIRECTO SRL,ALSINA 425,3100,PARANA,ENTRE RIOS,ARGENTINA,DISTRIBUIDOR,,"ALSINA 425 (3100) PARANA, ENTRE RIOS, ARGENTINA",,
4827,MIÑO RAMON EUSTAQUIO,FERNANDEZ MORENO 1647,1406,CAPITAL FEDERAL,CAPITAL FEDERAL,ARGENTINA,COLOCADOR,,"FERNANDEZ MORENO 1647 (1406) CAPITAL FEDERAL, CAPITAL FEDERAL, ARGENTINA",,
229,LA CASA DEL TECHADO SA,25 nº 2366 Y 508,1900,LA PLATA,BUENOS AIRES,ARGENTINA,DISTRIBUIDOR,,"25 nº 2366 Y 508 (1900) LA PLATA, BUENOS AIRES, ARGENTINA",,
4133,BERTUS,SANCHEZ DE BUSTAMANTE 148 P.7,1001,CAPITAL FEDERAL,CAPITAL FEDERAL,ARGENTINA,COLOCADOR,,"SANCHEZ DE BUSTAMANTE 148 P.7 (1001) CAPITAL FEDERAL, CAPITAL FEDERAL, ARGENTINA",,
4832,MAPEI ARGENTINA S.A.,PANAMERICANA KM 51.5,1625,ESCOBAR,BUENOS AIRES,ARGENTINA,DISTRIBUIDOR,,"PANAMERICANA KM 51.5 (1625) ESCOBAR, BUENOS AIRES, ARGENTINA",,
5011,DISTRIBUIDORA CEM SRL,AV MAC LEAN 1164,3500,RESISTENCIA,CHACO,ARGENTINA,DISTRIBUIDOR,,"AV MAC LEAN 1164 (3500) RESISTENCIA, CHACO, ARGENTINA",,
5379,VEGA METALES SRL,AV AGUIRRE SUD 1612,4200,SANTIAGO DEL ESTERO,SANTIAGO DEL ESTERO,ARGENTINA,CORRALON,,"AV AGUIRRE SUD 1612 (4200) SANTIAGO DEL ESTERO, SANTIAGO DEL ESTERO, ARGENTINA",,
5145,MADER SRL,137 NRO 2049 Y ESQ 74,1900,LA PLATA,BUENOS AIRES,ARGENTINA,FERRETERIA,,"137 NRO 2049 Y ESQ 74 (1900) LA PLATA, BUENOS AIRES, ARGENTINA",,
5207,RIO PLAS RIO III S.A.S.,INT. DE BUONO 170,5850,RIO TERCERO,CORDOBA,ARGENTINA,COLOCADOR,,"INT. DE BUONO 170 (5850) RIO TERCERO, CORDOBA, ARGENTINA",,
1299,COLATTO GUSTAVO ROGELIO,IGNACIO DE LUCIA 298,6550,BOLIVAR,BUENOS AIRES,ARGENTINA,CORRALON,,"IGNACIO DE LUCIA 298 (6550) BOLIVAR, BUENOS AIRES, ARGENTINA",,
4146,EL CAÑADON SRL,AVDA. ALTE. BROWN 325,4600,SAN SALVADOR DE JUJUY,JUJUY,ARGENTINA,CORRALON,,"AVDA. ALTE. BROWN 325 (4600) SAN SALVADOR DE JUJUY, JUJUY, ARGENTINA",,
5850,CUITIÑO ALBERTO ARMANDO,ANDRES BARANDA 849,1878,QUILMES,BUENOS AIRES,ARGENTINA,COLOCADOR,,"ANDRES BARANDA 849 (1878) QUILMES, BUENOS AIRES, ARGENTINA",,
6769,ALEM INGENIERIA S.A.,AV. L.N. ALEM 3770,5012,CORDOBA UNIDAD POSTAL N° 19,CORDOBA,ARGENTINA,CONSTRUCTORA,,"AV. L.N. ALEM 3770 (5012) CORDOBA UNIDAD POSTAL N° 19, CORDOBA, ARGENTINA",,
803,DIPERNA JUAN CARLOS,AV. GUEMES 251  Y  BROWN,6620,CHIVILCOY,BUENOS AIRES,ARGENTINA,,,"AV. GUEMES 251  Y  BROWN (6620) CHIVILCOY, BUENOS AIRES, ARGENTINA",,
34,EL TEHUELCHE S.A.C.I.C.I.,P. MORENO 99 ESQ. ZAPIOLA,9400,RIO GALLEGOS,SANTA CRUZ,ARGENTINA,CADENAS,,"P. MORENO 99 ESQ. ZAPIOLA (9400) RIO GALLEGOS, SANTA CRUZ, ARGENTINA",,
1858,DOR SOCIEDAD DE RESPONSABILIDA,AV. ITALIA 1480,3600,FORMOSA,FORMOSA,ARGENTINA,CORRALON,,"AV. ITALIA 1480 (3600) FORMOSA, FORMOSA, ARGENTINA",,
4937,PINTECOR SRL,BV. LOS ALEMANES 3200,5002,CORDOBA,CORDOBA,ARGENTINA,PINTURERIA,,"BV. LOS ALEMANES 3200 (5002) CORDOBA, CORDOBA, ARGENTINA",,
6711,URSICH RICARDO RODRIGO,ECHEANDIA 5856,1439,CAPITAL FEDERAL,CAPITAL FEDERAL,ARGENTINA,PINTURERIA,,"ECHEANDIA 5856 (1439) CAPITAL FEDERAL, CAPITAL FEDERAL, ARGENTINA",,
4708,PROPLASTO SRL,JOSE BONIFACIO 1716 PISO 4,1406,CAPITAL FEDERAL,CAPITAL FEDERAL,ARGENTINA,DISTRIBUIDOR,,"JOSE BONIFACIO 1716 PISO 4 (1406) CAPITAL FEDERAL, CAPITAL FEDERAL, ARGENTINA",,
4057,TEMPLE S.A.,EUSEBIO BLANCO 708,5519,CORONEL DORREGO,MENDOZA,ARGENTINA,DISTRIBUIDOR,,"EUSEBIO BLANCO 708 (5519) CORONEL DORREGO, MENDOZA, ARGENTINA",,
4035,CONSTRUCTORA FAGUA S.A.,CALLE 21 N° 224,1884,BERAZATEGUI,BUENOS AIRES,ARGENTINA,CONSTRUCCION EN SECO,,"CALLE 21 N° 224 (1884) BERAZATEGUI, BUENOS AIRES, ARGENTINA",,
5451,HIMAN ACEROS SA,RODRIGUEZ PEÑA 170,5519,CORONEL DORREGO,MENDOZA,ARGENTINA,CORRALON,,"RODRIGUEZ PEÑA 170 (5519) CORONEL DORREGO, MENDOZA, ARGENTINA",,
133,CARLOS ISLA Y CIA S.A.,TUCUMAN 224,3483,ÑURUGUAY,CORRIENTES,ARGENTINA,CORRALON,,"TUCUMAN 224 (3483) ÑURUGUAY, CORRIENTES, ARGENTINA",,
284,DE LEON MEDINA S.R.L.,AV PTE PERON 2868,7600,MAR DEL PLATA,BUENOS AIRES,ARGENTINA,DISTRIBUIDOR,,"AV PTE PERON 2868 (7600) MAR DEL PLATA, BUENOS AIRES, ARGENTINA",,
237,MATERCON S.A,MARCELO T DE ALVEAR 846,9120,PUERTO MADRYN,CHUBUT,ARGENTINA,CORRALON,,"MARCELO T DE ALVEAR 846 (9120) PUERTO MADRYN, CHUBUT, ARGENTINA",,
5675,ANACON S.A.,AV JUAN B JUSTO 6502,1407,CAPITAL FEDERAL,CAPITAL FEDERAL,ARGENTINA,CONSTRUCCION EN SECO,,"AV JUAN B JUSTO 6502 (1407) CAPITAL FEDERAL, CAPITAL FEDERAL, ARGENTINA",,
3512,AGUERO ENRIQUE RODOLFO,PELLEGRINI 375,4000,SAN MIGUEL DE TUCUMAN,TUCUMAN,ARGENTINA,,,"PELLEGRINI 375 (4000) SAN MIGUEL DE TUCUMAN, TUCUMAN, ARGENTINA",,
1155,CROSETTO HUMBERTO GERARDO,RICARDO BALBIN 2391 (EX R200),1722,MERLO,BUENOS AIRES,ARGENTINA,,,"RICARDO BALBIN 2391 (EX R200) (1722) MERLO, BUENOS AIRES, ARGENTINA",,
1769,MADERZANA SOC. RESP. LTDA.,PASAJE TOSSI 1306,2000,ROSARIO,SANTA FE,ARGENTINA,DISTRIBUIDOR,,"PASAJE TOSSI 1306 (2000) ROSARIO, SANTA FE, ARGENTINA",,
820,RUIZ OLALDE S R L,25 DE MAYO ESTE 488,5400,SAN JUAN,SAN JUAN,ARGENTINA,CORRALON,,"25 DE MAYO ESTE 488 (5400) SAN JUAN, SAN JUAN, ARGENTINA",,
3775,ZARATE JULIO RICARDO,AV. FACUNDO QUIROGA Y VARELA,5300,LA RIOJA,LA RIOJA,ARGENTINA,FERRETERIA,,"AV. FACUNDO QUIROGA Y VARELA (5300) LA RIOJA, LA RIOJA, ARGENTINA",,
4645,EL DEPOSITO SRL,AV. RIOJA SUR 1166,5400,SAN JUAN,SAN JUAN,ARGENTINA,DISTRIBUIDOR,,"AV. RIOJA SUR 1166 (5400) SAN JUAN, SAN JUAN, ARGENTINA",,
60,FERRETERIA ARGENTINA SRL(RAW),BELGRANO 656,9103,RAWSON,CHUBUT,ARGENTINA,CORRALON,,"BELGRANO 656 (9103) RAWSON, CHUBUT, ARGENTINA",,
6162,AURUX SAS,RUTA 16 KM 23,3505,PUERTO TIROL,CHACO,ARGENTINA,DISTRIBUIDOR,,"RUTA 16 KM 23 (3505) PUERTO TIROL, CHACO, ARGENTINA",,
84,CASA PALM S.A.C.I.I. Y A.,RIVADAVIA 96,8400,SAN CARLOS DE BARILOCHE,RIO NEGRO,ARGENTINA,CORRALON,,"RIVADAVIA 96 (8400) SAN CARLOS DE BARILOCHE, RIO NEGRO, ARGENTINA",,
3714,SERVICIOS Y VENTA DE IMPERMEAB,ELENA DE FORTABAT 2031,7400,OLAVARRIA,BUENOS AIRES,ARGENTINA,COLOCADOR,,"ELENA DE FORTABAT 2031 (7400) OLAVARRIA, BUENOS AIRES, ARGENTINA",,
747,GENOVA MATIAS Y GONZALEZ RAMIR,AV VERTIZ 5541,7600,MAR DEL PLATA,BUENOS AIRES,ARGENTINA,DISTRIBUIDOR,,"AV VERTIZ 5541 (7600) MAR DEL PLATA, BUENOS AIRES, ARGENTINA",,
6987,EL SOL MATERIALES S.A.,MENDOZA 1639,4000,SAN MIGUEL DE TUCUMAN -DISTRIBUCION,TUCUMAN,ARGENTINA,CORRALON,,"MENDOZA 1639 (4000) SAN MIGUEL DE TUCUMAN -DISTRIBUCION, TUCUMAN, ARGENTINA",,
200,CODIMAT S.A.,DON BOSCO 1495,8000,BAHIA BLANCA,BUENOS AIRES,ARGENTINA,CORRALON,,"DON BOSCO 1495 (8000) BAHIA BLANCA, BUENOS AIRES, ARGENTINA",,
688,CORRALON PUNILLA SA,SAN MARTIN 1500,5164,STA MARIA DE PUNILLA,CORDOBA,ARGENTINA,MADERERA,,"SAN MARTIN 1500 (5164) STA MARIA DE PUNILLA, CORDOBA, ARGENTINA",,
79,CHEMECO SA,Bme MITRE 3120,1201,CAPITAL FEDERAL,CAPITAL FEDERAL,ARGENTINA,CORRALON,,"Bme MITRE 3120 (1201) CAPITAL FEDERAL, CAPITAL FEDERAL, ARGENTINA",,
3422,CONSTRUCCIONES 2000 S.R.L.,8 DE DICIEM. Y RIO TURBIO,5300,LA RIOJA,LA RIOJA,ARGENTINA,CORRALON,,"8 DE DICIEM. Y RIO TURBIO (5300) LA RIOJA, LA RIOJA, ARGENTINA",,
3369,BERNARDI SRL,PRADO 663,4700,SAN FERNANDO DEL VALLE DE CATAMARCA,CATAMARCA,ARGENTINA,FERRETERIA,,"PRADO 663 (4700) SAN FERNANDO DEL VALLE DE CATAMARCA, CATAMARCA, ARGENTINA",,
5460,Química Oriental S.A.,Avda. General Flores 4314,,MONTEVIDEO,,URUGUAY,EXPO,,"Avda. General Flores 4314 () MONTEVIDEO, , URUGUAY",,
4699,ABBA MAT DE CONSTRUCCION SRL,FRANCISCO GABRIELLI 3850,5513,LUZURIAGA,MENDOZA,ARGENTINA,CORRALON,,"FRANCISCO GABRIELLI 3850 (5513) LUZURIAGA, MENDOZA, ARGENTINA",,
5915,RAPIFERR SRL,PEDRO A. RIOS 636B,2132,FUNES,SANTA FE,ARGENTINA,DISTRIBUIDOR,,"PEDRO A. RIOS 636B (2132) FUNES, SANTA FE, ARGENTINA",,
2287,CASA ALEKSY WASIUK S.A.,PARANA 511,3328,JARDIN AMERICA,MISIONES,ARGENTINA,DISTRIBUIDOR,,"PARANA 511 (3328) JARDIN AMERICA, MISIONES, ARGENTINA",,
5432,GRUPO CASA ALE SRL,JACINTO BENAVENTE 30,1889,BOSQUES,BUENOS AIRES,ARGENTINA,DISTRIBUIDOR,,"JACINTO BENAVENTE 30 (1889) BOSQUES, BUENOS AIRES, ARGENTINA",,
4612,DECOLOR SRL,DANTE ALIGHIERI 101,5174,HUERTA GRANDE,CORDOBA,ARGENTINA,CORRALON,,"DANTE ALIGHIERI 101 (5174) HUERTA GRANDE, CORDOBA, ARGENTINA",,
178,FERR. MAURI - RUIZ MAURI HERNA,RUCCI 2147,3460,CURUZU CUATIA,CORRIENTES,ARGENTINA,DISTRIBUIDOR,,"RUCCI 2147 (3460) CURUZU CUATIA, CORRIENTES, ARGENTINA",,
5402,PINTURERIAS COLON DE ARG SA,AV MITRE 1192,5730,VILLA MERCEDES,SAN LUIS,ARGENTINA,PINTURERIA,,"AV MITRE 1192 (5730) VILLA MERCEDES, SAN LUIS, ARGENTINA",,
4352,FERRENORT SAS,TUCUMAN 201,5500,MENDOZA,MENDOZA,ARGENTINA,DISTRIBUIDOR,,"TUCUMAN 201 (5500) MENDOZA, MENDOZA, ARGENTINA",,
47,CORRALON COMAHUE S.A.,SAN MARTIN 2803,8300,NEUQUEN,NEUQUEN,ARGENTINA,CORRALON,,"SAN MARTIN 2803 (8300) NEUQUEN, NEUQUEN, ARGENTINA",,
1184,B P MAT SRL,FRAY LUIS BELTRAN 1112,1716,LIBERTAD,BUENOS AIRES,ARGENTINA,CORRALON,,"FRAY LUIS BELTRAN 1112 (1716) LIBERTAD, BUENOS AIRES, ARGENTINA",,
5511,CABRERA GAGICH CARLOS AUGUSTO,AV. MITRE 833,1884,BERAZATEGUI,BUENOS AIRES,ARGENTINA,COLOCADOR,,"AV. MITRE 833 (1884) BERAZATEGUI, BUENOS AIRES, ARGENTINA",,
5658,LUPO PABLO JOSE MARIA,13 N 1118,7620,BALCARCE,BUENOS AIRES,ARGENTINA,COLOCADOR,,"13 N 1118 (7620) BALCARCE, BUENOS AIRES, ARGENTINA",,
5685,VARGAS JONATAN,SARGENTO CABRAL 2360,1663,SAN MIGUEL,BUENOS AIRES,ARGENTINA,DISTRIBUIDOR,,"SARGENTO CABRAL 2360 (1663) SAN MIGUEL, BUENOS AIRES, ARGENTINA",,
1383,ARUPAC S.A.,JUAN MARIA GUTIERREZ 3765 10§4,1425,CAPITAL FEDERAL,CAPITAL FEDERAL,ARGENTINA,,,"JUAN MARIA GUTIERREZ 3765 10§4 (1425) CAPITAL FEDERAL, CAPITAL FEDERAL, ARGENTINA",,
2737,CERAMICA NORTE S.A.,RESOAGLI 1599,3400,CORRIENTES,CORRIENTES,ARGENTINA,DISTRIBUIDOR,,"RESOAGLI 1599 (3400) CORRIENTES, CORRIENTES, ARGENTINA",,
6710,DISTRIBUCIONES WESINGER SAS,BELGRANO 1993,5513,COQUIMBITO,MENDOZA,ARGENTINA,DISTRIBUIDOR,,"BELGRANO 1993 (5513) COQUIMBITO, MENDOZA, ARGENTINA",,
5723,COLORMIX S.A.,ALSINA 331,5850,RIO TERCERO,CORDOBA,ARGENTINA,PINTURERIA,,"ALSINA 331 (5850) RIO TERCERO, CORDOBA, ARGENTINA",,
6681,CORRALON LUJAN SA,GUIÑAZU 643,5507,LUJAN DE CUYO,MENDOZA,ARGENTINA,CORRALON,,"GUIÑAZU 643 (5507) LUJAN DE CUYO, MENDOZA, ARGENTINA",,
3525,OCHOVA JORGE ANDRES,9 DE JULIO 230,5380,CHAMICAL,LA RIOJA,ARGENTINA,CORRALON,,"9 DE JULIO 230 (5380) CHAMICAL, LA RIOJA, ARGENTINA",,
3873,CONSTRUK SRL,ALVAREZ JONTE 4201,1001,CAPITAL FEDERAL,CAPITAL FEDERAL,ARGENTINA,PINTURERIA,,"ALVAREZ JONTE 4201 (1001) CAPITAL FEDERAL, CAPITAL FEDERAL, ARGENTINA",,
999,PRODUCTOS VENIER S.A.,CALLE 58 N§ 1244,1650,VILLA MAIPU,BUENOS AIRES,ARGENTINA,,,"CALLE 58 N§ 1244 (1650) VILLA MAIPU, BUENOS AIRES, ARGENTINA",,
140,EMPRENDIMIENTOS CHOCON SRL,CHOCON 753,8300,NEUQUEN,NEUQUEN,ARGENTINA,CORRALON,,"CHOCON 753 (8300) NEUQUEN, NEUQUEN, ARGENTINA",,
4041,FIDEICOMISO SOLARES MITRE 856,Salinas Chicas 3845,8000,BAHIA BLANCA,BUENOS AIRES,ARGENTINA,ARQUITECTO,,"Salinas Chicas 3845 (8000) BAHIA BLANCA, BUENOS AIRES, ARGENTINA",,
45,SURMAT S.A.,25 DE MAYO 1133,8500,VIEDMA,RIO NEGRO,ARGENTINA,CORRALON,,"25 DE MAYO 1133 (8500) VIEDMA, RIO NEGRO, ARGENTINA",,
5586,ACONIF S.A.,ESTEBAN DE LUCA 2251,1246,CAPITAL FEDERAL,CAPITAL FEDERAL,ARGENTINA,COLOCADOR,,"ESTEBAN DE LUCA 2251 (1246) CAPITAL FEDERAL, CAPITAL FEDERAL, ARGENTINA",,
4888,VARELA GERARDO ARTURO,GENERAL PAZ 514,1842,MONTE GRANDE,BUENOS AIRES,ARGENTINA,COLOCADOR,,"GENERAL PAZ 514 (1842) MONTE GRANDE, BUENOS AIRES, ARGENTINA",,
1775,M&D MARKETING EMPRESARIAL S.R.,AV. AMERICA 284,4000,SAN MIGUEL DE TUCUMAN,TUCUMAN,ARGENTINA,DISTRIBUIDOR,,"AV. AMERICA 284 (4000) SAN MIGUEL DE TUCUMAN, TUCUMAN, ARGENTINA",,
3895,LUXARDO EMILIANO PANTALEON,GABOTO 5180,7600,MAR DEL PLATA,BUENOS AIRES,ARGENTINA,MADERERA,,"GABOTO 5180 (7600) MAR DEL PLATA, BUENOS AIRES, ARGENTINA",,
4068,GERARD CLAUDIA FABIANA,GALLESIO 431,2800,ZARATE,BUENOS AIRES,ARGENTINA,DISTRIBUIDOR,,"GALLESIO 431 (2800) ZARATE, BUENOS AIRES, ARGENTINA",,
1419,ALESSI MARTIN ESTEBAN SRL,SALTA 732,5400,BARRIO RIVADAVIA,SAN JUAN,ARGENTINA,CONSTRUCCION EN SECO,,"SALTA 732 (5400) BARRIO RIVADAVIA, SAN JUAN, ARGENTINA",,
5385,LUJAN MATIAS LEONEL,JOSE MANUEL ESTRADA 3296,1872,SARANDI,BUENOS AIRES,ARGENTINA,DISTRIBUIDOR,,"JOSE MANUEL ESTRADA 3296 (1872) SARANDI, BUENOS AIRES, ARGENTINA",,
5790,PEREZ MAXIMILIANO RODRIGO,RUTA 7 Y SAN PEDRO,5587,SAN ROQUE,MENDOZA,ARGENTINA,FERRETERIA,,"RUTA 7 Y SAN PEDRO (5587) SAN ROQUE, MENDOZA, ARGENTINA",,
3908,LA COLONIAL SRL,PUERTO PRINCIPE 1667,5012,BARRIO RESIDENCIAL AMERICA,CORDOBA,ARGENTINA,DISTRIBUIDOR,,"PUERTO PRINCIPE 1667 (5012) BARRIO RESIDENCIAL AMERICA, CORDOBA, ARGENTINA",,
6772,ESTILO QUARZO SRL,MAIPU 2104 1 E,1636,OLIVOS,BUENOS AIRES,ARGENTINA,CONSTRUCTORA,,"MAIPU 2104 1 E (1636) OLIVOS, BUENOS AIRES, ARGENTINA",,
994,MERIMAT DEL SUR SRL,AV. SAN MARTIN 1880,1888,FLORENCIO VARELA,BUENOS AIRES,ARGENTINA,MADERERA,,"AV. SAN MARTIN 1880 (1888) FLORENCIO VARELA, BUENOS AIRES, ARGENTINA",,
3479,RACHA SRL,LA SOLEDAD RUTA 40,4139,SANTA MARIA,CATAMARCA,ARGENTINA,CORRALON,,"LA SOLEDAD RUTA 40 (4139) SANTA MARIA, CATAMARCA, ARGENTINA",,
5144,MALELU SRL,AV. TUCUMAN 2696,7111,SAN BERNARDO DEL TUYU,BUENOS AIRES,ARGENTINA,PINTURERIA,,"AV. TUCUMAN 2696 (7111) SAN BERNARDO DEL TUYU, BUENOS AIRES, ARGENTINA",,
3249,MOLINA OSCAR,INDEPENDENCIA 1150,4400,SALTA,SALTA,ARGENTINA,CORRALON,,"INDEPENDENCIA 1150 (4400) SALTA, SALTA, ARGENTINA",,
5873,VITECSO S.A,AGUSTIN DE VEDIA 4120,1754,SAN JUSTO,BUENOS AIRES,ARGENTINA,PINTURERIA,,"AGUSTIN DE VEDIA 4120 (1754) SAN JUSTO, BUENOS AIRES, ARGENTINA",,
5748,POLITRES SRL    |,BAHIA BLANCA 2312,1417,CAPITAL FEDERAL,CAPITAL FEDERAL,ARGENTINA,COLOCADOR,,"BAHIA BLANCA 2312 (1417) CAPITAL FEDERAL, CAPITAL FEDERAL, ARGENTINA",,
3482,KONSTRUYA SRL,RUTA PARCIAL 5 FTE  P TRIANG,5300,LA RIOJA,LA RIOJA,ARGENTINA,,,"RUTA PARCIAL 5 FTE  P TRIANG (5300) LA RIOJA, LA RIOJA, ARGENTINA",,
928,INSUMA S R L,DIRECTORIO AV. 5529,1440,CAPITAL FEDERAL,CAPITAL FEDERAL,ARGENTINA,CONSTRUCCION EN SECO,,"DIRECTORIO AV. 5529 (1440) CAPITAL FEDERAL, CAPITAL FEDERAL, ARGENTINA",,
4471,LIMA SRL,PANCHO RAMIREZ 15,3370,IGUAZU,MISIONES,ARGENTINA,FERRETERIA,,"PANCHO RAMIREZ 15 (3370) IGUAZU, MISIONES, ARGENTINA",,
5660,NICOLAS DEL PUERTO,ESQUEL 1399,1882,EZPELETA,BUENOS AIRES,ARGENTINA,COLOCADOR,,"ESQUEL 1399 (1882) EZPELETA, BUENOS AIRES, ARGENTINA",,
5665,LAGO CRISTIAN ARIEL,FORMOSA 105,1876,BERNAL,BUENOS AIRES,ARGENTINA,DISTRIBUIDOR,,"FORMOSA 105 (1876) BERNAL, BUENOS AIRES, ARGENTINA",,
4168,FLORES VICTOR ALEJANDRO,ISLAS DE LOS ESTADOS 30,5800,RIO CUARTO,CORDOBA,ARGENTINA,COLOCADOR,,"ISLAS DE LOS ESTADOS 30 (5800) RIO CUARTO, CORDOBA, ARGENTINA",,
4337,VIUL SRL,PJE. COCHICO 775,1408,CAPITAL FEDERAL,CAPITAL FEDERAL,ARGENTINA,COLOCADOR,,"PJE. COCHICO 775 (1408) CAPITAL FEDERAL, CAPITAL FEDERAL, ARGENTINA",,
5566,SANCHEZ MARTINEZ E HIJOS SA,AV ARMADA ARGENTINA 2676,5002,CORDOBA,CORDOBA,ARGENTINA,CORRALON,,"AV ARMADA ARGENTINA 2676 (5002) CORDOBA, CORDOBA, ARGENTINA",,
3367,CORRALON SANCHEZ SRL,SAN MARTIN 814,4700,BELEN,CATAMARCA,ARGENTINA,CORRALON,,"SAN MARTIN 814 (4700) BELEN, CATAMARCA, ARGENTINA",,
3788,SOCIEDAD SYNERGY Ltda. Equipos,Av. 3er anillo e/ Alemana y M,,Sta Cruz dela Sierra,BOLIVIA,BOLIVIA,EXPO,,"Av. 3er anillo e/ Alemana y M () Sta Cruz dela Sierra, BOLIVIA, BOLIVIA",,
292,MADERERA LA DE GAJOS S.A,SASTRE 590,6450,PEHUAJO,BUENOS AIRES,ARGENTINA,MADERERA,,"SASTRE 590 (6450) PEHUAJO, BUENOS AIRES, ARGENTINA",,
5791,BATTAGLIA BAKER NAHUEL DANIEL,PUEYRREDON 430,8324,CIPOLLETTI,RIO NEGRO,ARGENTINA,CORRALON,,"PUEYRREDON 430 (8324) CIPOLLETTI, RIO NEGRO, ARGENTINA",,
5636,DEBY FERR SRL,EUFRASIO LOZA 445,5000,CORDOBA -  DISTRIBUCION CASA CENTRA,CORDOBA,ARGENTINA,FERRETERIA,,"EUFRASIO LOZA 445 (5000) CORDOBA -  DISTRIBUCION CASA CENTRA, CORDOBA, ARGENTINA",,
69,NICOLETTI MATERIALES S.R.L.,CNEL.MERCAN 382,5881,MERLO,SAN LUIS,ARGENTINA,,,"CNEL.MERCAN 382 (5881) MERLO, SAN LUIS, ARGENTINA",,
3942,ARENERA Y MADERERA DEL SUR SRL,LAS RETAMAS 443,8407,VILLA LA ANGOSTURA,NEUQUEN,ARGENTINA,MADERERA,,"LAS RETAMAS 443 (8407) VILLA LA ANGOSTURA, NEUQUEN, ARGENTINA",,
4239,CONSTRUCCIONES RM S.R.L.,GRAL. M. DE GAINZA 585,1405,CAPITAL FEDERAL,CAPITAL FEDERAL,ARGENTINA,,,"GRAL. M. DE GAINZA 585 (1405) CAPITAL FEDERAL, CAPITAL FEDERAL, ARGENTINA",,
5625,PERCAL SA,LIBERTAD 310,5521,VILLA NUEVA DE GUAYMALLEN,MENDOZA,ARGENTINA,CORRALON,,"LIBERTAD 310 (5521) VILLA NUEVA DE GUAYMALLEN, MENDOZA, ARGENTINA",,
5763,MAXIMA SERVICIOS SRL,ORIBE 1077,1665,JOSE C. PAZ,BUENOS AIRES,ARGENTINA,COLOCADOR,,"ORIBE 1077 (1665) JOSE C. PAZ, BUENOS AIRES, ARGENTINA",,
5032,FS SANITARIOS S.A.,AV. AVALOS 3885,3500,RESISTENCIA,CHACO,ARGENTINA,DISTRIBUIDOR,,"AV. AVALOS 3885 (3500) RESISTENCIA, CHACO, ARGENTINA",,
5014,KRAUS MADERAS,AV. EL CENTENARIO 831,6005,GENERAL ARENALES,BUENOS AIRES,ARGENTINA,MADERERA,,"AV. EL CENTENARIO 831 (6005) GENERAL ARENALES, BUENOS AIRES, ARGENTINA",,
5058,EL REY DE LA MEMBRANA,MONSEÑOR BUFANO 3657,1754,SAN JUSTO,BUENOS AIRES,ARGENTINA,DISTRIBUIDOR,,"MONSEÑOR BUFANO 3657 (1754) SAN JUSTO, BUENOS AIRES, ARGENTINA",,
4042,CASAS CESAR LEONEL,ARTAZA 0,4750,BELEN,CATAMARCA,ARGENTINA,CORRALON,,"ARTAZA 0 (4750) BELEN, CATAMARCA, ARGENTINA",,
5053,CARLOS JAVIER VELA,CHARRUA 2571,1765,ISIDRO CASANOVA,BUENOS AIRES,ARGENTINA,COLOCADOR,,"CHARRUA 2571 (1765) ISIDRO CASANOVA, BUENOS AIRES, ARGENTINA",,
5853,MARIANA CAROLINA ALMERI,GAUSS 5960,5147,LOS BOULEVARES,CORDOBA,ARGENTINA,COLOCADOR,,"GAUSS 5960 (5147) LOS BOULEVARES, CORDOBA, ARGENTINA",,
5028,EL REY DE LA MEMBRANA,MONSEÑOR BUFANO 3657,1754,SAN JUSTO,BUENOS AIRES,ARGENTINA,DISTRIBUIDOR,,"MONSEÑOR BUFANO 3657 (1754) SAN JUSTO, BUENOS AIRES, ARGENTINA",,
4875,WABLES S.A.,AZOPARDO 6720,7600,MAR DEL PLATA,BUENOS AIRES,ARGENTINA,DISTRIBUIDOR,,"AZOPARDO 6720 (7600) MAR DEL PLATA, BUENOS AIRES, ARGENTINA",,
1269,CLAVOS Y ALAMBRES VICTORIA SRL,PASTEUR 2948,1644,VICTORIA,BUENOS AIRES,ARGENTINA,DISTRIBUIDOR,,"PASTEUR 2948 (1644) VICTORIA, BUENOS AIRES, ARGENTINA",,
3995,LAUREANO RAMOS ANTONIO FILOMEN,TRELLES MANUEL R 2750 DTO 92,1416,CAPITAL FEDERAL,CAPITAL FEDERAL,ARGENTINA,COLOCADOR,,"TRELLES MANUEL R 2750 DTO 92 (1416) CAPITAL FEDERAL, CAPITAL FEDERAL, ARGENTINA",,
6732,TEKTON ARGENTINA S.A.,MITRE 2553,5500,MENDOZA,MENDOZA,ARGENTINA,CONSTRUCTORA,,"MITRE 2553 (5500) MENDOZA, MENDOZA, ARGENTINA",,
4319,GARRO S.A.,BARTOLOME MITRE 3120,1201,CAPITAL FEDERAL,CAPITAL FEDERAL,ARGENTINA,CORRALON,,"BARTOLOME MITRE 3120 (1201) CAPITAL FEDERAL, CAPITAL FEDERAL, ARGENTINA",,
4335,MADERAS MEDINA SRL,RUTA P. 5 KM 87,5196,SANTA ROSA DE CALAMUCHITA,CORDOBA,ARGENTINA,MADERERA,,"RUTA P. 5 KM 87 (5196) SANTA ROSA DE CALAMUCHITA, CORDOBA, ARGENTINA",,
71,COMERCI JOSE M.ROCA MATERIALES,FONTANA 75,9120,PUERTO MADRYN,CHUBUT,ARGENTINA,CORRALON,,"FONTANA 75 (9120) PUERTO MADRYN, CHUBUT, ARGENTINA",,
4932,ALVEAR EZEQUIEL ANDRES,ROCA 350,8316,PLOTTIER,NEUQUEN,ARGENTINA,CORRALON,,"ROCA 350 (8316) PLOTTIER, NEUQUEN, ARGENTINA",,
1655,GOMEZ TRONCOSO MARIA CANDELA,BV DELLEPIANE CALIXTO 753,2804,CAMPANA,BUENOS AIRES,ARGENTINA,FERRETERIA,,"BV DELLEPIANE CALIXTO 753 (2804) CAMPANA, BUENOS AIRES, ARGENTINA",,
5063,MEZA ANTONIO,AV. SARMIENTO 1899,3500,RESISTENCIA,CHACO,ARGENTINA,COLOCADOR,,"AV. SARMIENTO 1899 (3500) RESISTENCIA, CHACO, ARGENTINA",,
5246,BONSIGNORI MATIAS,JUAN B JUSTO 9914,5000,CORDOBA -  DISTRIBUCION CASA CENTRA,CORDOBA,ARGENTINA,FERRETERIA,,"JUAN B JUSTO 9914 (5000) CORDOBA -  DISTRIBUCION CASA CENTRA, CORDOBA, ARGENTINA",,
5157,VICTOR GULLO SRL,LAS CAÑAS 1551,5521,VILLA NUEVA DE GUAYMALLEN,MENDOZA,ARGENTINA,CORRALON,,"LAS CAÑAS 1551 (5521) VILLA NUEVA DE GUAYMALLEN, MENDOZA, ARGENTINA",,
4350,SPATARO ELINA NANCY,AV. OLIVER 399,1839,9 DE ABRIL,BUENOS AIRES,ARGENTINA,,,"AV. OLIVER 399 (1839) 9 DE ABRIL, BUENOS AIRES, ARGENTINA",,
6068,MATERCOR S.A.,AV. INDEPENDENCIA 3798,3400,CORRIENTES,CORRIENTES,ARGENTINA,DISTRIBUIDOR,,"AV. INDEPENDENCIA 3798 (3400) CORRIENTES, CORRIENTES, ARGENTINA",,
1732,ESTRUCTURAS VEGA SRL,RUTA 13 Y AUT. CBA-ROSARIO,5972,PILAR,CORDOBA,ARGENTINA,,,"RUTA 13 Y AUT. CBA-ROSARIO (5972) PILAR, CORDOBA, ARGENTINA",,
3870,METALES DIBO S.A.,MAZA NORTE 3536,5511,GENERAL GUTIERREZ,MENDOZA,ARGENTINA,CORRALON,,"MAZA NORTE 3536 (5511) GENERAL GUTIERREZ, MENDOZA, ARGENTINA",,
5119,IMPACTO COLOR S.A.,29 Nº 87,6600,MERCEDES,BUENOS AIRES,ARGENTINA,FERRETERIA,,"29 Nº 87 (6600) MERCEDES, BUENOS AIRES, ARGENTINA",,
4069,IMPERMAT SRL,MITRE 1137,2204,TIMBUES,SANTA FE,ARGENTINA,DISTRIBUIDOR,,"MITRE 1137 (2204) TIMBUES, SANTA FE, ARGENTINA",,
3423,CUELLO CONSTRUCCIONES S.R.L.,1RA JUNTA 705,5360,LA PUNTILLA,LA RIOJA,ARGENTINA,CORRALON,,"1RA JUNTA 705 (5360) LA PUNTILLA, LA RIOJA, ARGENTINA",,
4263,NALE S.A.,AV. INDEPENDENCIA 3257,1225,CAPITAL FEDERAL,CAPITAL FEDERAL,ARGENTINA,DISTRIBUIDOR,,"AV. INDEPENDENCIA 3257 (1225) CAPITAL FEDERAL, CAPITAL FEDERAL, ARGENTINA",,
3650,ARROYO ELISA VIVIANA,SAN JUAN N§ 3513,4000,SAN MIGUEL DE TUCUMAN,TUCUMAN,ARGENTINA,PINTURERIA,,"SAN JUAN N§ 3513 (4000) SAN MIGUEL DE TUCUMAN, TUCUMAN, ARGENTINA",,
2077,D'AVIS DANIEL DAVID,3 DE ABRIL 2154,3302,ITUZAINGO,CORRIENTES,ARGENTINA,CORRALON,,"3 DE ABRIL 2154 (3302) ITUZAINGO, CORRIENTES, ARGENTINA",,
4922,GRUPO CAMIN S.A.,TERRADA 457,5507,LUJAN DE CUYO,MENDOZA,ARGENTINA,FERRETERIA,,"TERRADA 457 (5507) LUJAN DE CUYO, MENDOZA, ARGENTINA",,
5736,SERDIPA CONSTRUCCION S.A,ALMIRANTE BROWN 54,7130,CHASCOMUS,BUENOS AIRES,ARGENTINA,CORRALON,,"ALMIRANTE BROWN 54 (7130) CHASCOMUS, BUENOS AIRES, ARGENTINA",,
4059,NERPITI SOCIEDAD ANONIMA,ROQUE SAENZ PEÑA 1924,5507,LUJAN DE CUYO,MENDOZA,ARGENTINA,ZINGUERIA,,"ROQUE SAENZ PEÑA 1924 (5507) LUJAN DE CUYO, MENDOZA, ARGENTINA",,
6197,MORBIDELLI ROBERTO CARLOS,408 N°1296,1890,J.M. GUTIERREZ,BUENOS AIRES,ARGENTINA,DISTRIBUIDOR,,"408 N°1296 (1890) J.M. GUTIERREZ, BUENOS AIRES, ARGENTINA",,
5542,FISZMAN CARLOS ALEJANDRO,URTUBEY 570,7167,VALERIA DEL MAR,BUENOS AIRES,ARGENTINA,DISTRIBUIDOR,,"URTUBEY 570 (7167) VALERIA DEL MAR, BUENOS AIRES, ARGENTINA",,
5010,"VICTOR, IAN FRANCO",BUENOS AIRES 39,3505,PUERTO TIROL,CHACO,ARGENTINA,GRUPO DE COMPRAS,,"BUENOS AIRES 39 (3505) PUERTO TIROL, CHACO, ARGENTINA",,
4764,PROVEEDORA DEL PLATA,12  166,1900,LA PLATA,BUENOS AIRES,ARGENTINA,CORRALON,,"12  166 (1900) LA PLATA, BUENOS AIRES, ARGENTINA",,
4852,RITROVATO VIVIANA,ESTOCOLMO 165,1832,LOMAS DE ZAMORA,BUENOS AIRES,ARGENTINA,COLOCADOR,,"ESTOCOLMO 165 (1832) LOMAS DE ZAMORA, BUENOS AIRES, ARGENTINA",,
5929,VELA AXEL LAUTARO,CHARRUA 2571,1765,ISIDRO CASANOVA,BUENOS AIRES,ARGENTINA,COLOCADOR,,"CHARRUA 2571 (1765) ISIDRO CASANOVA, BUENOS AIRES, ARGENTINA",,
4318,FERRETERA COMERCIAL COLON SRL,COLON 1031,4200,SANTIAGO DELESTERO,SANTIAGO DEL ESTERO,ARGENTINA,CORRALON,,"COLON 1031 (4200) SANTIAGO DELESTERO, SANTIAGO DEL ESTERO, ARGENTINA",,
4672,JBRS SAS,URIBURU 230,1629,PILAR,BUENOS AIRES,ARGENTINA,DISTRIBUIDOR,,"URIBURU 230 (1629) PILAR, BUENOS AIRES, ARGENTINA",,
5891,FERNANDEZ DIAZ FABIAN,IGNACIO DE LA ROZA 608,5419,ALBARDON,SAN JUAN,ARGENTINA,CORRALON,,"IGNACIO DE LA ROZA 608 (5419) ALBARDON, SAN JUAN, ARGENTINA",,
5558,GRUPO UNIVECO S.A.,LA RIOJA 4511,7600,MAR DEL PLATA,BUENOS AIRES,ARGENTINA,CADENAS,,"LA RIOJA 4511 (7600) MAR DEL PLATA, BUENOS AIRES, ARGENTINA",,
777,ANDRES LUIS DE FRANCESCO SA,DR CARBAJAL 1326,2740,ARRECIFES,BUENOS AIRES,ARGENTINA,,,"DR CARBAJAL 1326 (2740) ARRECIFES, BUENOS AIRES, ARGENTINA",,
5917,ASPASUR SAS,SARMIENTO 856,5600,SAN RAFAEL,MENDOZA,ARGENTINA,COLOCADOR,,"SARMIENTO 856 (5600) SAN RAFAEL, MENDOZA, ARGENTINA",,
6885,BRUNO BOGINO,BARRIO DOCTA LOTE 15 MZ 93,5101,MALAGUEÑO,CORDOBA,ARGENTINA,COLOCADOR,,"BARRIO DOCTA LOTE 15 MZ 93 (5101) MALAGUEÑO, CORDOBA, ARGENTINA",,
4929,GLOBAL OIL SRL,MARIANO MORENO ESQ BROWN,8309,CENTENARIO,NEUQUEN,ARGENTINA,FERRETERIA,,"MARIANO MORENO ESQ BROWN (8309) CENTENARIO, NEUQUEN, ARGENTINA",,
6726,AMBAR COLOR SRL,EUGENIO PERTICONE 817,8300,NEUQUEN,NEUQUEN,ARGENTINA,CORRALON,,"EUGENIO PERTICONE 817 (8300) NEUQUEN, NEUQUEN, ARGENTINA",,
4043,RINERO HERMANOS SRL,HECTOR ALVAREZ IGARZABAL 1459,5009,CORDOBA ESTAFETA N° 16,CORDOBA,ARGENTINA,DISTRIBUIDOR,,"HECTOR ALVAREZ IGARZABAL 1459 (5009) CORDOBA ESTAFETA N° 16, CORDOBA, ARGENTINA",,
810,PINTURERIA PINTAR SRL,TOMAS COSENTINO 175,6500,9 DE JULIO,BUENOS AIRES,ARGENTINA,PINTURERIA,,"TOMAS COSENTINO 175 (6500) 9 DE JULIO, BUENOS AIRES, ARGENTINA",,
5372,VILTE JONATAN SAUL,MINA 9 DE OCTUBRE,4600,SAN SALVADOR DE JUJUY,JUJUY,ARGENTINA,CORRALON,,"MINA 9 DE OCTUBRE (4600) SAN SALVADOR DE JUJUY, JUJUY, ARGENTINA",,
4656,ALEGRE ALEJANDRA,CALLE 132 Nº 763,1884,BERAZATEGUI,BUENOS AIRES,ARGENTINA,COLOCADOR,,"CALLE 132 Nº 763 (1884) BERAZATEGUI, BUENOS AIRES, ARGENTINA",,
5416,NAVARRO MARCOS EMANUEL,SAN MARTIN 0,4728,CHUMBICHA,CATAMARCA,ARGENTINA,CORRALON,,"SAN MARTIN 0 (4728) CHUMBICHA, CATAMARCA, ARGENTINA",,
5113,MATERIALES FERRARIS S.A.,BV. DRAGO 454,2700,PERGAMINO,BUENOS AIRES,ARGENTINA,CORRALON,,"BV. DRAGO 454 (2700) PERGAMINO, BUENOS AIRES, ARGENTINA",,
6745,TORRES LEO MAURICIO,RAMON VALDEZ 1323,5730,VILLA MERCEDES,SAN LUIS,ARGENTINA,CORRALON,,"RAMON VALDEZ 1323 (5730) VILLA MERCEDES, SAN LUIS, ARGENTINA",,
3980,GORLERO PIZARRO JORGE,LOS PENSAMIENTOS 105,8300,NEUQUEN,NEUQUEN,ARGENTINA,DISTRIBUIDOR,,"LOS PENSAMIENTOS 105 (8300) NEUQUEN, NEUQUEN, ARGENTINA",,
5240,MEZCAU SRL,CALLE PUBLICA 6554,5000,CORDOBA SUCURSAL  N° 17,CORDOBA,ARGENTINA,,,"CALLE PUBLICA 6554 (5000) CORDOBA SUCURSAL  N° 17, CORDOBA, ARGENTINA",,
4745,MANGONE HERNAN DARIO,TUCUMAN 782,5220,JESUS MARIA,CORDOBA,ARGENTINA,COLOCADOR,,"TUCUMAN 782 (5220) JESUS MARIA, CORDOBA, ARGENTINA",,
13,CONSUMIDOR FINAL,,1884,BERAZATEGUI,BUENOS AIRES,ARGENTINA,,," (1884) BERAZATEGUI, BUENOS AIRES, ARGENTINA",,
5210,CORRALON EL GAUCHO SRL,SARGENTO CABRAL 247,4448,JOAQUIN V GONZALEZ,SALTA,ARGENTINA,CORRALON,,"SARGENTO CABRAL 247 (4448) JOAQUIN V GONZALEZ, SALTA, ARGENTINA",,
1869,RMN S.R.L,AV. GUTNISKY 2616,3600,FORMOSA,FORMOSA,ARGENTINA,FERRETERIA,,"AV. GUTNISKY 2616 (3600) FORMOSA, FORMOSA, ARGENTINA",,
5356,COPMACO LTDA (MAT. CENTRO SA),RUTA 9  SUR  KM 689,5123,FERREYRA,CORDOBA,ARGENTINA,GRUPO DE COMPRAS,,"RUTA 9  SUR  KM 689 (5123) FERREYRA, CORDOBA, ARGENTINA",,
3783,AIDAR JUAN CARLOS,ANGEL GODOY 70,5515,MAIPU,MENDOZA,ARGENTINA,CORRALON,,"ANGEL GODOY 70 (5515) MAIPU, MENDOZA, ARGENTINA",,
42,MADERERA LA LOMA SA,CALLE 38 NRO 1780 (30 Y 31),1900,LA PLATA,BUENOS AIRES,ARGENTINA,CORRALON,,"CALLE 38 NRO 1780 (30 Y 31) (1900) LA PLATA, BUENOS AIRES, ARGENTINA",,
5781,MATERIALES AVP S.A.S.,RODRIGUEZ PEÑA Y 9 DE JULIO,5511,GODOY CRUZ,MENDOZA,ARGENTINA,CORRALON,,"RODRIGUEZ PEÑA Y 9 DE JULIO (5511) GODOY CRUZ, MENDOZA, ARGENTINA",,
5509,GARACH JORGE,JOAQUIN V GONZALEZ 890,5501,GODOY CRUZ,MENDOZA,ARGENTINA,CORRALON,,"JOAQUIN V GONZALEZ 890 (5501) GODOY CRUZ, MENDOZA, ARGENTINA",,
4771,FERRETERIAS Y PINT EL SOL,RIVADAVIA 2077,1824,LANUS,BUENOS AIRES,ARGENTINA,PINTURERIA,,"RIVADAVIA 2077 (1824) LANUS, BUENOS AIRES, ARGENTINA",,
4311,CHAVEZ SILVIA LILIANA,BARTOLOME MITRE 445,3545,VILLA BERTHET,CHACO,ARGENTINA,DISTRIBUIDOR,,"BARTOLOME MITRE 445 (3545) VILLA BERTHET, CHACO, ARGENTINA",,
5390,BRISIO CARLOS ARIEL,J L CABRERA 125,5940,LAS VARILLAS,CORDOBA,ARGENTINA,COLOCADOR,,"J L CABRERA 125 (5940) LAS VARILLAS, CORDOBA, ARGENTINA",,
3556,DESINGN SRL,AV. ALTE BROWN 1340,4600,SAN SALVADOR DE JUJUY,JUJUY,ARGENTINA,FERRETERIA,,"AV. ALTE BROWN 1340 (4600) SAN SALVADOR DE JUJUY, JUJUY, ARGENTINA",,
4718,CENTRO CONSTRUCCIONES SRL,PTE PERON ESQ. FITZ ROY,5900,VILLA MARIA,CORDOBA,ARGENTINA,CORRALON,,"PTE PERON ESQ. FITZ ROY (5900) VILLA MARIA, CORDOBA, ARGENTINA",,
5037,CASCIA SRL,AV. EDISON 75,3500,RESISTENCIA,CHACO,ARGENTINA,FERRETERIA,,"AV. EDISON 75 (3500) RESISTENCIA, CHACO, ARGENTINA",,
4098,BELLA VISTA DEL MAR MDQ SRL,ARTURO ALIO 2601,7600,MAR DEL PLATA,BUENOS AIRES,ARGENTINA,DISTRIBUIDOR,,"ARTURO ALIO 2601 (7600) MAR DEL PLATA, BUENOS AIRES, ARGENTINA",,
1526,CVR S.A.,PLAYA GRANDE 1171,7609,SANTA CLARA DEL MAR,BUENOS AIRES,ARGENTINA,MADERERA,,"PLAYA GRANDE 1171 (7609) SANTA CLARA DEL MAR, BUENOS AIRES, ARGENTINA",,
6736,CALEGARI MICAELA SOLEDAD,MIRALLA 2787,1766,TABLADA,BUENOS AIRES,ARGENTINA,COLOCADOR,,"MIRALLA 2787 (1766) TABLADA, BUENOS AIRES, ARGENTINA",,
4116,MATERIALES BOUCIGUEZ S.A.,CHACABUCO 2343,7400,OLAVARRIA,BUENOS AIRES,ARGENTINA,CORRALON,,"CHACABUCO 2343 (7400) OLAVARRIA, BUENOS AIRES, ARGENTINA",,
4757,BALCON SRL,RUTA 5 Y CUESTA DEL TREN,5881,MERLO,SAN LUIS,ARGENTINA,CORRALON,,"RUTA 5 Y CUESTA DEL TREN (5881) MERLO, SAN LUIS, ARGENTINA",,
6807,INGENIERIA SIGLO XXI SRL,AV. N. URIBURU 774,3600,FORMOSA,FORMOSA,ARGENTINA,CORRALON,,"AV. N. URIBURU 774 (3600) FORMOSA, FORMOSA, ARGENTINA",,
3803,ZONNI FEDERICO,SAN MARTIN 755,5000,CORDOBA -  DISTRIBUCION CASA CENTRA,CORDOBA,ARGENTINA,,,"SAN MARTIN 755 (5000) CORDOBA -  DISTRIBUCION CASA CENTRA, CORDOBA, ARGENTINA",,
6697,CUTIPA ERNESTO EDUARDO,PJE CARMEN FRIAS 660-CENTRO,4427,CAFAYATE,SALTA,ARGENTINA,FERRETERIA,,"PJE CARMEN FRIAS 660-CENTRO (4427) CAFAYATE, SALTA, ARGENTINA",,
1134,CONMET S.A.,SAN MARTIN SUR 85,5567,LA CONSULTA,MENDOZA,ARGENTINA,,,"SAN MARTIN SUR 85 (5567) LA CONSULTA, MENDOZA, ARGENTINA",,
5997,IGLESIAS GUSTAVO ANGEL,CALLE 412 976,1890,JUAN MARIA GUTIERREZ  SUCURSAL,BUENOS AIRES,ARGENTINA,CONSUMIDOR FINAL,,"CALLE 412 976 (1890) JUAN MARIA GUTIERREZ  SUCURSAL, BUENOS AIRES, ARGENTINA",,
5805,CONS FINAL - CANDELA CHILO,,1881,SAN FRANCISCO SOLANO,BUENOS AIRES,ARGENTINA,,," (1881) SAN FRANCISCO SOLANO, BUENOS AIRES, ARGENTINA",,
5096,COMPR CONS Y MAND TROPERO SOSA,TROPERO SOSA 1399,5515,MAIPU,MENDOZA,ARGENTINA,CONSTRUCCION EN SECO,,"TROPERO SOSA 1399 (5515) MAIPU, MENDOZA, ARGENTINA",,
6773,RR DIGITAL SAS,VIÑA DEL TORREON C12 M1,5513,LUZURIAGA,MENDOZA,ARGENTINA,FERRETERIA,,"VIÑA DEL TORREON C12 M1 (5513) LUZURIAGA, MENDOZA, ARGENTINA",,
6770,BARAVALLE ROBERTO RUBEN,SAN LUIS 210,5915,CARRILOBO,CORDOBA,ARGENTINA,DISTRIBUIDOR,,"SAN LUIS 210 (5915) CARRILOBO, CORDOBA, ARGENTINA",,
4630,REDAELLI SERGIO MARCELO,REPUBLICA ARGENTINA 342,8309,CENTENARIO,NEUQUEN,ARGENTINA,COLOCADOR,,"REPUBLICA ARGENTINA 342 (8309) CENTENARIO, NEUQUEN, ARGENTINA",,
4061,ELECTEC S.A.,PRIMITIVO DE LA RETA 420,5501,GODOY CRUZ,MENDOZA,ARGENTINA,CORRALON,,"PRIMITIVO DE LA RETA 420 (5501) GODOY CRUZ, MENDOZA, ARGENTINA",,
1444,PANNOCCHIA SRL,RIVADAVIA 849,5501,GODOY CRUZ,MENDOZA,ARGENTINA,CORRALON,,"RIVADAVIA 849 (5501) GODOY CRUZ, MENDOZA, ARGENTINA",,
5328,BERGESE HNOS SRL,RUTA 20 KM 29 (COLECTORA),5101,MALAGUEÑO,CORDOBA,ARGENTINA,FERRETERIA,,"RUTA 20 KM 29 (COLECTORA) (5101) MALAGUEÑO, CORDOBA, ARGENTINA",,
5474,FERRAMIX SRL,BUENOS AIRES 950,5903,VILLA NUEVA,CORDOBA,ARGENTINA,DISTRIBUIDOR,,"BUENOS AIRES 950 (5903) VILLA NUEVA, CORDOBA, ARGENTINA",,
5680,HIERROS CAÑOS JF SRL,CARLOS CASARES 2177,1755,RAFAEL CASTILLO,BUENOS AIRES,ARGENTINA,DISTRIBUIDOR,,"CARLOS CASARES 2177 (1755) RAFAEL CASTILLO, BUENOS AIRES, ARGENTINA",,
5710,HIEMACAR SRL,MAIPU 56,5152,VILLA CARLOS PAZ,CORDOBA,ARGENTINA,FERRETERIA,,"MAIPU 56 (5152) VILLA CARLOS PAZ, CORDOBA, ARGENTINA",,
5829,GONZALEZ FERNANDO ARIEL,MARIANO ACOSTA 1331,1870,PIÑEYRO (PDO. AVELLANEDA),BUENOS AIRES,ARGENTINA,DISTRIBUIDOR,,"MARIANO ACOSTA 1331 (1870) PIÑEYRO (PDO. AVELLANEDA), BUENOS AIRES, ARGENTINA",,
6749,RUBEN MAURICIO FLORES,CABARI 4157,12300,,,URUGUAY,EXPO,,"CABARI 4157 (12300) , , URUGUAY",,
1084,GONZALEZ HECTOR RODOLFO,ESPA¥A 920 Y 1RA JUNTA,8109,PUNTA ALTA,BUENOS AIRES,ARGENTINA,CORRALON,,"ESPA¥A 920 Y 1RA JUNTA (8109) PUNTA ALTA, BUENOS AIRES, ARGENTINA",,
198,EL CORRALON S.R.L,AV. DEL TRABAJO 444,8322,CUTRAL-CO,NEUQUEN,ARGENTINA,CORRALON,,"AV. DEL TRABAJO 444 (8322) CUTRAL-CO, NEUQUEN, ARGENTINA",,
5889,CEF SRL,URUNDAY 972,2000,ROSARIO,SANTA FE,ARGENTINA,DISTRIBUIDOR,,"URUNDAY 972 (2000) ROSARIO, SANTA FE, ARGENTINA",,
5991,PELLAT FERNANDO ENRIQUE,RUTA 25 50100,1629,PILAR,BUENOS AIRES,ARGENTINA,CORRALON,,"RUTA 25 50100 (1629) PILAR, BUENOS AIRES, ARGENTINA",,
5770,ACEROS DEFER S.A.,AV. ING. BALLOFET 3000,5600,SAN RAFAEL,MENDOZA,ARGENTINA,CORRALON,,"AV. ING. BALLOFET 3000 (5600) SAN RAFAEL, MENDOZA, ARGENTINA",,
5638,EZEQUIEL CUELLO,AV SAVIO 551,2900,SAN NICOLAS,BUENOS AIRES,ARGENTINA,FERRETERIA,,"AV SAVIO 551 (2900) SAN NICOLAS, BUENOS AIRES, ARGENTINA",,
5931,VIRTUALIZADORA SRL,GARIBALDI 7,5500,MENDOZA,MENDOZA,ARGENTINA,DISTRIBUIDOR,,"GARIBALDI 7 (5500) MENDOZA, MENDOZA, ARGENTINA",,
59,GERMAT S.R.L.,9 DE JULIO 3761,3000,SANTA FE,SANTA FE,ARGENTINA,CORRALON,,"9 DE JULIO 3761 (3000) SANTA FE, SANTA FE, ARGENTINA",,
1376,CRAMS S.R.L.,GINES PONTE 324,8371,JUNIN DE LOS ANDES,NEUQUEN,ARGENTINA,CORRALON,,"GINES PONTE 324 (8371) JUNIN DE LOS ANDES, NEUQUEN, ARGENTINA",,
2520,CASA GABARDINI S.A,Av. URUGUAY 3102,3300,POSADAS,MISIONES,ARGENTINA,FERRETERIA,,"Av. URUGUAY 3102 (3300) POSADAS, MISIONES, ARGENTINA",,
5405,CENTRO DE NEGOCIOS SRL,VIQUEIRA 75,2550,BELL VILLE,CORDOBA,ARGENTINA,CORRALON,,"VIQUEIRA 75 (2550) BELL VILLE, CORDOBA, ARGENTINA",,
4153,FEMACO SOCIEDAD ANONIMA,WENCESLAO NUÑEZ 936,5577,RIVADAVIA,MENDOZA,ARGENTINA,CORRALON,,"WENCESLAO NUÑEZ 936 (5577) RIVADAVIA, MENDOZA, ARGENTINA",,
5429,COLEONI FERNANDO Y OMAR SH,TUCUMAN 295,5166,COSQUIN,CORDOBA,ARGENTINA,CORRALON,,"TUCUMAN 295 (5166) COSQUIN, CORDOBA, ARGENTINA",,
195,GUERRERO NESTOR OMAR,PARQUE INDUSTRIAL PLOTTIER,8316,PLOTTIER,NEUQUEN,ARGENTINA,CORRALON,,"PARQUE INDUSTRIAL PLOTTIER (8316) PLOTTIER, NEUQUEN, ARGENTINA",,
5056,TUNISTAR SA,BOISO LANZA 4616,,MONTEVIDEO,URUGUAY,URUGUAY,EXPO,,"BOISO LANZA 4616 () MONTEVIDEO, URUGUAY, URUGUAY",,
4194,FABRI HORMIG S.R.L.,RIO NEGRO 298,5572,LA COLONIA,MENDOZA,ARGENTINA,CORRALON,,"RIO NEGRO 298 (5572) LA COLONIA, MENDOZA, ARGENTINA",,
5263,H Y R CONSTRUCCION SRL,PTE PERON Y PASO DE LOS ANDES,5900,VILLA MARIA (DPTO. GENERAL SAN MART,CORDOBA,ARGENTINA,DISTRIBUIDOR,,"PTE PERON Y PASO DE LOS ANDES (5900) VILLA MARIA (DPTO. GENERAL SAN MART, CORDOBA, ARGENTINA",,
6845,LOUISANA PACIFIC CHILE SA,"AV SANTA CLARA  085, PISO 8, C",,,CHILE,CHILE,EXPO,,"AV SANTA CLARA  085, PISO 8, C () , CHILE, CHILE",,
4879,VICENTINI MARCELO,CASTRO BARROS 371,5360,CHILECITO,LA RIOJA,ARGENTINA,DISTRIBUIDOR,,"CASTRO BARROS 371 (5360) CHILECITO, LA RIOJA, ARGENTINA",,
4863,KARAVANKE S.A.S.,9 DE JULIO 684,5501,GODOY CRUZ,MENDOZA,ARGENTINA,MADERERA,,"9 DE JULIO 684 (5501) GODOY CRUZ, MENDOZA, ARGENTINA",,
3187,MARTINEZ ALBERTO JOSE,9 DE JULIO Y BELGRANO,5310,AIMOGASTA,LA RIOJA,ARGENTINA,CORRALON,,"9 DE JULIO Y BELGRANO (5310) AIMOGASTA, LA RIOJA, ARGENTINA",,
1993,SCHAAP DARIO GUSTAVO,MANZANA 1 PARCELA 16 Q. 7,3705,JUAN JOSE CASTELLI,CHACO,ARGENTINA,CORRALON,,"MANZANA 1 PARCELA 16 Q. 7 (3705) JUAN JOSE CASTELLI, CHACO, ARGENTINA",,
6716,COMPRALIADO S.A.-TERRALON,OVIDIO LAGOS 487 - 1A,5000,CORDOBA -  DISTRIBUCION CASA CENTRA,CORDOBA,ARGENTINA,,,"OVIDIO LAGOS 487 - 1A (5000) CORDOBA -  DISTRIBUCION CASA CENTRA, CORDOBA, ARGENTINA",,
5731,SBRICCOLI JAVIER FRANCISCO,9 DE JULIO 215,5700,SAN LUIS,SAN LUIS,ARGENTINA,CORRALON,,"9 DE JULIO 215 (5700) SAN LUIS, SAN LUIS, ARGENTINA",,
4903,ALECAR CILINDROS S.A.,CORRIENTES 3745,1878,QUILMES,BUENOS AIRES,ARGENTINA,COLOCADOR,,"CORRIENTES 3745 (1878) QUILMES, BUENOS AIRES, ARGENTINA",,
1632,URBANTEC ARGENTINA SRL,MEXICO 2971,1882,EZPELETA,BUENOS AIRES,ARGENTINA,,,"MEXICO 2971 (1882) EZPELETA, BUENOS AIRES, ARGENTINA",,
